{"type": "FeatureCollection", "features": [ {"type": "Feature", "properties": {"norad_id": 33492, "name": "GOSAT (IBUKI)", "group": "resource", "lat": -48.88097415798203, "lon": -79.86809099419274, "alt_km": 676.1917548819638, "timestamp": "2025-12-27T02:10:15.844750+00:00", "meta": {"OBJECT_NAME": "GOSAT (IBUKI)", "OBJECT_ID": "2009-002A", "EPOCH": "2025-12-26T07:07:43.620960", "MEAN_MOTION": 14.67550857, "ECCENTRICITY": 0.0001037, "INCLINATION": 98.0771, "RA_OF_ASC_NODE": 108.712, "ARG_OF_PERICENTER": 105.7066, "MEAN_ANOMALY": 254.4253, "EPHEMERIS_TYPE": 0, "CLASSIFICATION_TYPE": "U", "NORAD_CAT_ID": 33492, "ELEMENT_SET_NO": 999, "REV_AT_EPOCH": 90610, "BSTAR": 0.00017142, "MEAN_MOTION_DOT": 9.24e-06, "MEAN_MOTION_DDOT": 0}, "tle": {"line1": "1 33492U 09002A   25360.29703265  .00000924  00000+0  17142-3 0  9994", "line2": "2 33492  98.0771 108.7120 0001037 105.7066 254.4253 14.67550857906109"}}, "geometry": {"type": "Point", "coordinates": [-79.86809099419274, -48.88097415798203]}}, {"type": "Feature", "properties": {"norad_id": 35681, "name": "DEIMOS-1", "group": "resource", "lat": -30.26301439606165, "lon": 165.56398896814343, "alt_km": 651.1660006111242, "timestamp": "2025-12-27T02:10:15.844761+00:00", "meta": {"OBJECT_NAME": "DEIMOS-1", "OBJECT_ID": "2009-041A", "EPOCH": "2025-12-26T21:25:29.792352", "MEAN_MOTION": 14.74975615, "ECCENTRICITY": 0.0002409, "INCLINATION": 97.716, "RA_OF_ASC_NODE": 160.8381, "ARG_OF_PERICENTER": 58.2463, "MEAN_ANOMALY": 301.8981, "EPHEMERIS_TYPE": 0, "CLASSIFICATION_TYPE": "U", "NORAD_CAT_ID": 35681, "ELEMENT_SET_NO": 999, "REV_AT_EPOCH": 88148, "BSTAR": 0.0001878, "MEAN_MOTION_DOT": 1.215e-05, "MEAN_MOTION_DDOT": 0}, "tle": {"line1": "1 35681U 09041A   25360.89270593  .00001215  00000+0  18780-3 0  9991", "line2": "2 35681  97.7160 160.8381 0002409  58.2463 301.8981 14.74975615881483"}}, "geometry": {"type": "Point", "coordinates": [165.56398896814343, -30.26301439606165]}}, {"type": "Feature", "properties": {"norad_id": 35682, "name": "DUBAISAT-1", "group": "resource", "lat": -65.94601305917121, "lon": -66.75701972355638, "alt_km": 647.25903964594, "timestamp": "2025-12-27T02:10:15.844771+00:00", "meta": {"OBJECT_NAME": "DUBAISAT-1", "OBJECT_ID": "2009-041B", "EPOCH": "2025-12-26T20:10:02.479008", "MEAN_MOTION": 14.74642822, "ECCENTRICITY": 0.0009251, "INCLINATION": 97.9799, "RA_OF_ASC_NODE": 131.3133, "ARG_OF_PERICENTER": 263.5938, "MEAN_ANOMALY": 96.4218, "EPHEMERIS_TYPE": 0, "CLASSIFICATION_TYPE": "U", "NORAD_CAT_ID": 35682, "ELEMENT_SET_NO": 999, "REV_AT_EPOCH": 87969, "BSTAR": 0.0002266, "MEAN_MOTION_DOT": 1.462e-05, "MEAN_MOTION_DDOT": 0}, "tle": {"line1": "1 35682U 09041B   25360.84030647  .00001462  00000+0  22660-3 0  9997", "line2": "2 35682  97.9799 131.3133 0009251 263.5938  96.4218 14.74642822879693"}}, "geometry": {"type": "Point", "coordinates": [-66.75701972355638, -65.94601305917121]}}, {"type": "Feature", "properties": {"norad_id": 35931, "name": "OCEANSAT-2", "group": "resource", "lat": 23.947412979606106, "lon": -176.08355587924478, "alt_km": 904.2931816651935, "timestamp": "2025-12-27T02:10:15.844782+00:00", "meta": {"OBJECT_NAME": "OCEANSAT-2", "OBJECT_ID": "2009-051A", "EPOCH": "2025-12-26T21:59:55.676832", "MEAN_MOTION": 13.99623096, "ECCENTRICITY": 0.001586, "INCLINATION": 98.2218, "RA_OF_ASC_NODE": 0.0786, "ARG_OF_PERICENTER": 7.7415, "MEAN_ANOMALY": 352.3994, "EPHEMERIS_TYPE": 0, "CLASSIFICATION_TYPE": "U", "NORAD_CAT_ID": 35931, "ELEMENT_SET_NO": 999, "REV_AT_EPOCH": 85523, "BSTAR": 5.0435e-05, "MEAN_MOTION_DOT": 3.6e-07, "MEAN_MOTION_DDOT": 0}, "tle": {"line1": "1 35931U 09051A   25360.91661663  .00000036  00000+0  50435-4 0  9999", "line2": "2 35931  98.2218   0.0786 0015860   7.7415 352.3994 13.99623096855234"}}, "geometry": {"type": "Point", "coordinates": [-176.08355587924478, 23.947412979606106]}}, {"type": "Feature", "properties": {"norad_id": 35946, "name": "WORLDVIEW-2 (WV-2)", "group": "resource", "lat": 79.08606888475313, "lon": 21.31255967699965, "alt_km": 756.4375427411915, "timestamp": "2025-12-27T02:10:15.844792+00:00", "meta": {"OBJECT_NAME": "WORLDVIEW-2 (WV-2)", "OBJECT_ID": "2009-055A", "EPOCH": "2025-12-26T19:06:18.923040", "MEAN_MOTION": 14.3773027, "ECCENTRICITY": 0.0004631, "INCLINATION": 98.4771, "RA_OF_ASC_NODE": 71.6874, "ARG_OF_PERICENTER": 35.6989, "MEAN_ANOMALY": 324.4507, "EPHEMERIS_TYPE": 0, "CLASSIFICATION_TYPE": "U", "NORAD_CAT_ID": 35946, "ELEMENT_SET_NO": 999, "REV_AT_EPOCH": 85087, "BSTAR": 7.7502e-05, "MEAN_MOTION_DOT": 1.9e-06, "MEAN_MOTION_DDOT": 0}, "tle": {"line1": "1 35946U 09055A   25360.79605235  .00000190  00000+0  77502-4 0  9993", "line2": "2 35946  98.4771  71.6874 0004631  35.6989 324.4507 14.37730270850879"}}, "geometry": {"type": "Point", "coordinates": [21.31255967699965, 79.08606888475313]}}, {"type": "Feature", "properties": {"norad_id": 36036, "name": "SMOS", "group": "resource", "lat": -42.27080027691816, "lon": -1.8286870466911607, "alt_km": 766.4791677382682, "timestamp": "2025-12-27T02:10:15.844803+00:00", "meta": {"OBJECT_NAME": "SMOS", "OBJECT_ID": "2009-059A", "EPOCH": "2025-12-26T11:47:46.851072", "MEAN_MOTION": 14.39753392, "ECCENTRICITY": 0.000104, "INCLINATION": 98.4382, "RA_OF_ASC_NODE": 185.3364, "ARG_OF_PERICENTER": 83.5124, "MEAN_ANOMALY": 276.6183, "EPHEMERIS_TYPE": 0, "CLASSIFICATION_TYPE": "U", "NORAD_CAT_ID": 36036, "ELEMENT_SET_NO": 999, "REV_AT_EPOCH": 84860, "BSTAR": 0.00014539, "MEAN_MOTION_DOT": 4.12e-06, "MEAN_MOTION_DDOT": 0}, "tle": {"line1": "1 36036U 09059A   25360.49151448  .00000412  00000+0  14539-3 0  9994", "line2": "2 36036  98.4382 185.3364 0001040  83.5124 276.6183 14.39753392848607"}}, "geometry": {"type": "Point", "coordinates": [-1.8286870466911607, -42.27080027691816]}}, {"type": "Feature", "properties": {"norad_id": 36110, "name": "YAOGAN-7", "group": "resource", "lat": -27.125926239886155, "lon": 58.64872706558531, "alt_km": 627.259850684155, "timestamp": "2025-12-27T02:10:15.844813+00:00", "meta": {"OBJECT_NAME": "YAOGAN-7", "OBJECT_ID": "2009-069A", "EPOCH": "2025-12-26T15:29:02.012352", "MEAN_MOTION": 14.77752551, "ECCENTRICITY": 0.0023522, "INCLINATION": 98.0293, "RA_OF_ASC_NODE": 242.3521, "ARG_OF_PERICENTER": 233.9323, "MEAN_ANOMALY": 125.9709, "EPHEMERIS_TYPE": 0, "CLASSIFICATION_TYPE": "U", "NORAD_CAT_ID": 36110, "ELEMENT_SET_NO": 999, "REV_AT_EPOCH": 86414, "BSTAR": 0.00010378, "MEAN_MOTION_DOT": 6.94e-06, "MEAN_MOTION_DDOT": 0}, "tle": {"line1": "1 36110U 09069A   25360.64516218  .00000694  00000+0  10378-3 0  9994", "line2": "2 36110  98.0293 242.3521 0023522 233.9323 125.9709 14.77752551864142"}}, "geometry": {"type": "Point", "coordinates": [58.64872706558531, -27.125926239886155]}}, {"type": "Feature", "properties": {"norad_id": 36605, "name": "TANDEM-X", "group": "resource", "lat": 67.3833038831417, "lon": -12.03412997060628, "alt_km": 500.701929661951, "timestamp": "2025-12-27T02:10:15.844823+00:00", "meta": {"OBJECT_NAME": "TANDEM-X", "OBJECT_ID": "2010-030A", "EPOCH": "2025-12-26T13:13:25.252608", "MEAN_MOTION": 15.1915819, "ECCENTRICITY": 0.0001776, "INCLINATION": 97.4455, "RA_OF_ASC_NODE": 5.7293, "ARG_OF_PERICENTER": 92.0278, "MEAN_ANOMALY": 268.116, "EPHEMERIS_TYPE": 0, "CLASSIFICATION_TYPE": "U", "NORAD_CAT_ID": 36605, "ELEMENT_SET_NO": 999, "REV_AT_EPOCH": 86043, "BSTAR": 6.7415e-05, "MEAN_MOTION_DOT": 1.349e-05, "MEAN_MOTION_DDOT": 0}, "tle": {"line1": "1 36605U 10030A   25360.55098672  .00001349  00000+0  67415-4 0  9995", "line2": "2 36605  97.4455   5.7293 0001776  92.0278 268.1160 15.19158190860436"}}, "geometry": {"type": "Point", "coordinates": [-12.03412997060628, 67.3833038831417]}}, {"type": "Feature", "properties": {"norad_id": 36795, "name": "CARTOSAT-2B", "group": "resource", "lat": -5.865472811568306, "lon": -131.1526035693371, "alt_km": 644.7485840727259, "timestamp": "2025-12-27T02:10:15.844834+00:00", "meta": {"OBJECT_NAME": "CARTOSAT-2B", "OBJECT_ID": "2010-035A", "EPOCH": "2025-12-26T20:27:43.839072", "MEAN_MOTION": 14.78747042, "ECCENTRICITY": 0.0012485, "INCLINATION": 97.783, "RA_OF_ASC_NODE": 49.4224, "ARG_OF_PERICENTER": 34.7804, "MEAN_ANOMALY": 325.4221, "EPHEMERIS_TYPE": 0, "CLASSIFICATION_TYPE": "U", "NORAD_CAT_ID": 36795, "ELEMENT_SET_NO": 999, "REV_AT_EPOCH": 83438, "BSTAR": 0.00015234, "MEAN_MOTION_DOT": 1.07e-05, "MEAN_MOTION_DDOT": 0}, "tle": {"line1": "1 36795U 10035A   25360.85259073  .00001070  00000+0  15234-3 0  9999", "line2": "2 36795  97.7830  49.4224 0012485  34.7804 325.4221 14.78747042834386"}}, "geometry": {"type": "Point", "coordinates": [-131.1526035693371, -5.865472811568306]}}, {"type": "Feature", "properties": {"norad_id": 36834, "name": "YAOGAN-10", "group": "resource", "lat": -30.182453569019323, "lon": -163.83724776647338, "alt_km": 621.2738745439265, "timestamp": "2025-12-27T02:10:15.844844+00:00", "meta": {"OBJECT_NAME": "YAOGAN-10", "OBJECT_ID": "2010-038A", "EPOCH": "2025-12-26T20:55:42.254112", "MEAN_MOTION": 14.84658953, "ECCENTRICITY": 0.0001332, "INCLINATION": 97.9134, "RA_OF_ASC_NODE": 20.5861, "ARG_OF_PERICENTER": 79.05, "MEAN_ANOMALY": 44.5105, "EPHEMERIS_TYPE": 0, "CLASSIFICATION_TYPE": "U", "NORAD_CAT_ID": 36834, "ELEMENT_SET_NO": 999, "REV_AT_EPOCH": 83163, "BSTAR": 0.0001668, "MEAN_MOTION_DOT": 1.357e-05, "MEAN_MOTION_DDOT": 0}, "tle": {"line1": "1 36834U 10038A   25360.87201683  .00001357  00000+0  16680-3 0  9996", "line2": "2 36834  97.9134  20.5861 0001332  79.0500  44.5105 14.84658953831634"}}, "geometry": {"type": "Point", "coordinates": [-163.83724776647338, -30.182453569019323]}}]}